OBJECT_NAME,OBJECT_ID,EPOCH,MEAN_MOTION,ECCENTRICITY,INCLINATION,RA_OF_ASC_NODE,ARG_OF_PERICENTER,MEAN_ANOMALY,EPHEMERIS_TYPE,CLASSIFICATION_TYPE,NORAD_CAT_ID,ELEMENT_SET_NO,REV_AT_EPOCH,BSTAR,MEAN_MOTION_DOT,MEAN_MOTION_DDOT
DUCHIFAT-1,2014-033M,2026-07-22T10:16:22.510848,15.72664069,.00037303,98.0416,267.7633,227.4828,132.6119,0,U,40021,999,66127,.11919688E-2,.162629E-2,0
NANOSATC-BR1,2014-033Q,2026-07-22T02:00:44.671104,15.32485208,.00050231,98.0713,238.5904,80.3934,279.7874,0,U,40024,999,65932,.59621354E-3,.18646E-3,0
QB50P1,2014-033R,2026-07-22T11:16:31.936512,15.18744167,.0010553,98.0974,217.1032,103.6108,256.6300,0,U,40025,999,65838,.40483776E-3,.8347E-4,0
DTUSAT-2,2014-033W,2026-07-21T10:41:43.515456,15.15402050,.00096503,98.0883,202.3606,113.9262,246.2980,0,U,40030,999,65787,.26396308E-3,.4915E-4,0
QB50P2,2014-033Y,2026-07-20T23:23:06.435456,15.15553719,.00091447,98.0771,200.9707,67.6874,292.5326,0,U,40032,999,65778,.24765819E-3,.4626E-4,0
PERSEUS-M1,2014-033AF,2026-07-22T07:01:20.889696,14.95729514,.00114663,97.9652,148.0056,173.4533,186.6839,0,U,40039,999,65588,.71062399E-4,.731E-5,0
POLYITAN-1,2014-033AJ,2026-07-22T12:58:42.517632,15.34411318,.00071697,98.0941,233.1772,42.0516,318.1274,0,U,40042,999,65901,.60418699E-3,.20091E-3,0
TIGRISAT,2014-033AK,2026-07-22T08:25:23.682720,14.85264090,.00480974,97.7874,352.5676,320.4832,39.2879,0,U,40043,999,65084,.13946501E-3,.1165E-4,0
AISAT,2014-034B,2026-07-22T13:40:23.608416,15.09430633,.00110841,98.2355,118.5676,100.7383,259.5092,0,U,40054,999,65254,.72744892E-3,.11591E-3,0
CANX-4,2014-034C,2026-07-22T14:45:54.686592,14.81319972,.0011382,98.3073,80.2214,256.1364,103.8581,0,U,40055,999,64977,.89047203E-4,.638E-5,0
CANX-5,2014-034D,2026-07-22T14:43:03.534240,14.81337367,.00113863,98.3075,80.2650,256.3978,103.5965,0,U,40056,999,64058,.8962165E-4,.643E-5,0
VELOX-I,2014-034E,2026-07-22T14:14:25.177344,14.98157447,.0007425,98.2491,110.6065,145.5602,214.6101,0,U,40057,999,65190,.3666961E-3,.4285E-4,0
GONETS-M 10,2014-036C,2026-07-22T13:37:54.699744,12.42946494,.00228023,82.5110,285.7007,67.1030,293.2454,0,U,40063,999,54664,.11703908E-3,.26E-6,0
METEOR-M 2,2014-037A,2026-07-22T14:55:45.373152,14.21471017,.0004746,98.5143,178.1099,301.7994,58.2721,0,U,40069,999,62435,.11034307E-3,.199E-5,0
DX1,2014-037C,2026-07-22T14:48:20.145312,14.90074511,.0007659,98.3892,167.4755,146.2627,213.9078,0,U,40071,999,65138,.51282312E-4,.433E-5,0
UKUBE-1,2014-037F,2026-07-22T00:03:56.437056,15.14023415,.00031348,98.4254,209.9476,76.9955,283.1624,0,U,40074,999,65382,.4640491E-3,.8356E-4,0
GAOFEN-2,2014-049A,2026-07-22T15:34:28.051392,14.80932979,.00086363,98.0088,267.8192,113.9973,246.2145,0,U,40118,999,64448,.42406859E-4,.275E-5,0
BRITE-PL2 (HEWELIUSZ),2014-049B,2026-07-22T14:05:14.385120,14.94702812,.0013634,97.9122,315.8672,358.1835,1.9333,0,U,40119,999,64673,.15180654E-3,.159E-4,0
CBERS 4,2014-079A,2026-07-22T14:02:31.892640,14.35517807,.00005636,98.3511,259.3026,76.6297,283.4952,0,U,40336,999,60903,.75065755E-4,.174E-5,0
SMAP,2015-003A,2026-07-22T13:36:17.083296,14.63393432,.00016351,98.1287,210.1621,92.5937,267.5452,0,U,40376,999,61279,.66541915E-4,.297E-5,0
GONETS-M 11,2015-020A,2026-07-22T14:07:07.176000,12.42878704,.00152638,82.4878,8.9279,286.0531,73.8867,0,U,40552,999,51313,.61246338E-4,.18E-6,0
GONETS-M 12,2015-020B,2026-07-22T13:28:24.229920,12.42892046,.00142197,82.4911,10.0777,269.7742,90.1708,0,U,40553,999,51312,.69039222E-4,.19E-6,0
GONETS-M 13,2015-020C,2026-07-22T14:46:58.943136,12.42871938,.00128662,82.4873,8.6485,253.3470,106.6197,0,U,40554,999,51310,.17654923E-3,.34E-6,0
DMC3-FM1,2015-032A,2026-07-22T13:30:12.547008,14.85770315,.00042873,97.6419,67.3423,308.4081,51.6750,0,U,40715,999,59516,.11523868E-4,.49E-6,0
DMC3-FM2,2015-032B,2026-07-22T14:01:44.991264,14.85779367,.0004863,97.6472,68.9611,314.5513,45.5305,0,U,40716,999,59516,.87405602E-4,.708E-5,0
DMC3-FM3,2015-032C,2026-07-22T14:35:42.499392,14.85769671,.00040749,97.6525,70.7592,317.4946,42.5954,0,U,40717,999,59517,.85783886E-4,.694E-5,0
CARBONITE 1 (CBNT-1),2015-032D,2026-07-22T14:10:00.681888,14.83684278,.00145843,97.6534,20.1796,172.1669,187.9776,0,U,40718,999,59459,.24143848E-3,.1947E-4,0
DEORBITSAIL,2015-032E,2026-07-22T13:11:38.491584,15.04301334,.00139446,97.5870,59.7125,112.8950,247.3750,0,U,40719,999,59656,.61395229E-3,.8513E-4,0
LILACSAT-2,2015-049K,2026-07-22T14:30:01.235808,15.52555330,.00086375,97.4630,241.8128,119.8780,240.3332,0,U,40908,999,60124,.32468475E-3,.19875E-3,0
