{"epoch":1784762836,"count":18316,"objects":[{"id":"40021","name":"DUCHIFAT 1","type":"PAYLOAD","l1":"1 40021U 14033M   26203.42803832  .00162629  00000-0  11920-2 0  9992","l2":"2 40021  98.0416 267.7633 0003730 227.4828 132.6119 15.72664069661278"},{"id":"40024","name":"NANOSAT C BR1","type":"PAYLOAD","l1":"1 40024U 14033Q   26203.08385036  .00018646  00000-0  59621-3 0  9998","l2":"2 40024  98.0713 238.5904 0005023  80.3934 279.7874 15.32485208659325"},{"id":"40025","name":"QB50P1","type":"PAYLOAD","l1":"1 40025U 14033R   26203.46981408  .00008347  00000-0  40484-3 0  9990","l2":"2 40025  98.0974 217.1032 0010553 103.6108 256.6300 15.18744167658385"},{"id":"40030","name":"DTUSAT 2","type":"PAYLOAD","l1":"1 40030U 14033W   26202.44564254  .00004915  00000-0  26396-3 0  9992","l2":"2 40030  98.0883 202.3606 0009650 113.9262 246.2980 15.15402050657875"},{"id":"40032","name":"QB50P2","type":"PAYLOAD","l1":"1 40032U 14033Y   26201.97438004  .00004626  00000-0  24766-3 0  9992","l2":"2 40032  98.0771 200.9707 0009145  67.6874 292.5326 15.15553719657789"},{"id":"40039","name":"PERSEUS M1","type":"PAYLOAD","l1":"1 40039U 14033AF  26203.29260289  .00000731  00000-0  71062-4 0  9999","l2":"2 40039  97.9652 148.0056 0011466 173.4533 186.6839 14.95729514655884"},{"id":"40042","name":"POLYITAN 1","type":"PAYLOAD","l1":"1 40042U 14033AJ  26203.54076988  .00020091  00000-0  60419-3 0  9996","l2":"2 40042  98.0941 233.1772 0007170  42.0516 318.1274 15.34411318659019"},{"id":"40043","name":"TIGRISAT","type":"PAYLOAD","l1":"1 40043U 14033AK  26203.35096855  .00001165  00000-0  13947-3 0  9996","l2":"2 40043  97.7874 352.5676 0048097 320.4832  39.2879 14.85264090650849"},{"id":"40054","name":"AISAT","type":"PAYLOAD","l1":"1 40054U 14034B   26203.56971769  .00011591  00000-0  72745-3 0  9993","l2":"2 40054  98.2355 118.5676 0011084 100.7383 259.5092 15.09430633652545"},{"id":"40055","name":"CANX-4","type":"PAYLOAD","l1":"1 40055U 14034C   26203.61521628  .00000638  00000-0  89047-4 0  9999","l2":"2 40055  98.3073  80.2214 0011382 256.1364 103.8581 14.81319972649779"},{"id":"40056","name":"CANX-5","type":"PAYLOAD","l1":"1 40056U 14034D   26203.61323535  .00000643  00000-0  89622-4 0  9992","l2":"2 40056  98.3075  80.2650 0011386 256.3978 103.5965 14.81337367640584"},{"id":"40057","name":"VELOX 1","type":"PAYLOAD","l1":"1 40057U 14034E   26203.59334696  .00004285  00000-0  36670-3 0  9990","l2":"2 40057  98.2491 110.6065 0007425 145.5602 214.6101 14.98157447651907"},{"id":"40063","name":"GONETS M 10 (M20)","type":"PAYLOAD","l1":"1 40063U 14036C   26203.56799421  .00000026  00000-0  11704-3 0  9997","l2":"2 40063  82.5110 285.7007 0022802  67.1030 293.2454 12.42946494546641"},{"id":"40069","name":"METEOR M2","type":"PAYLOAD","l1":"1 40069U 14037A   26203.62205293  .00000199  00000-0  11034-3 0  9997","l2":"2 40069  98.5143 178.1099 0004746 301.7994  58.2721 14.21471017624353"},{"id":"40071","name":"DX 1","type":"PAYLOAD","l1":"1 40071U 14037C   26203.61689983  .00000433  00000-0  51282-4 0  9992","l2":"2 40071  98.3892 167.4755 0007659 146.2627 213.9078 14.90074511651388"},{"id":"40074","name":"UKUBE 1","type":"PAYLOAD","l1":"1 40074U 14037F   26203.00273654  .00008356  00000-0  46405-3 0  9994","l2":"2 40074  98.4254 209.9476 0003135  76.9955 283.1624 15.14023415653825"},{"id":"40118","name":"GAOFEN 2","type":"PAYLOAD","l1":"1 40118U 14049A   26203.64893578  .00000275  00000-0  42407-4 0  9990","l2":"2 40118  98.0088 267.8192 0008636 113.9973 246.2145 14.80932979644482"},{"id":"40119","name":"BRITE-PL 2","type":"PAYLOAD","l1":"1 40119U 14049B   26203.58697205  .00001590  00000-0  15181-3 0  9992","l2":"2 40119  97.9122 315.8672 0013634 358.1835   1.9333 14.94702812646732"},{"id":"40336","name":"CBERS-4","type":"PAYLOAD","l1":"1 40336U 14079A   26203.58509135  .00000174  00000-0  75066-4 0  9996","l2":"2 40336  98.3511 259.3026 0000564  76.6297 283.4952 14.35517807609036"},{"id":"40376","name":"SMAP","type":"PAYLOAD","l1":"1 40376U 15003A   26203.56686439  .00000297  00000-0  66542-4 0  9994","l2":"2 40376  98.1287 210.1621 0001635  92.5937 267.5452 14.63393432612794"},{"id":"40552","name":"GONETS M 11 (M21)","type":"PAYLOAD","l1":"1 40552U 15020A   26203.58827750  .00000018  00000-0  61246-4 0  9991","l2":"2 40552  82.4878   8.9279 0015264 286.0531  73.8867 12.42878704513138"},{"id":"40553","name":"GONETS M 12 (M22)","type":"PAYLOAD","l1":"1 40553U 15020B   26203.56139155  .00000019  00000-0  69039-4 0  9994","l2":"2 40553  82.4911  10.0777 0014220 269.7742  90.1708 12.42892046513127"},{"id":"40554","name":"GONETS M 13 (M23)","type":"PAYLOAD","l1":"1 40554U 15020C   26203.61595999  .00000034  00000-0  17655-3 0  9996","l2":"2 40554  82.4873   8.6485 0012866 253.3470 106.6197 12.42871938513105"},{"id":"40715","name":"DMC 3-FM1","type":"PAYLOAD","l1":"1 40715U 15032A   26203.56264522  .00000049  00000-0  11524-4 0  9993","l2":"2 40715  97.6419  67.3423 0004287 308.4081  51.6750 14.85770315595166"},{"id":"40716","name":"DMC 3-FM2","type":"PAYLOAD","l1":"1 40716U 15032B   26203.58454851  .00000708  00000-0  87406-4 0  9996","l2":"2 40716  97.6472  68.9611 0004863 314.5513  45.5305 14.85779367595164"},{"id":"40717","name":"DMC 3-FM3","type":"PAYLOAD","l1":"1 40717U 15032C   26203.60813078  .00000694  00000-0  85784-4 0  9991","l2":"2 40717  97.6525  70.7592 0004075 317.4946  42.5954 14.85769671595175"},{"id":"40718","name":"CARBONITE 1","type":"PAYLOAD","l1":"1 40718U 15032D   26203.59028567  .00001947  00000-0  24144-3 0  9995","l2":"2 40718  97.6534  20.1796 0014584 172.1669 187.9776 14.83684278594593"},{"id":"40719","name":"DEORBITSAIL","type":"PAYLOAD","l1":"1 40719U 15032E   26203.54975106  .00008513  00000-0  61395-3 0  9996","l2":"2 40719  97.5870  59.7125 0013945 112.8950 247.3750 15.04301334596569"},{"id":"40908","name":"LILACSAT 2","type":"PAYLOAD","l1":"1 40908U 15049K   26203.60418097  .00019875  00000-0  32468-3 0  9994","l2":"2 40908  97.4630 241.8128 0008637 119.8780 240.3332 15.52555330601240"}]}